[{"OBJECT_NAME":"LYNK TOWER 6","OBJECT_ID":"2024-043AB","EPOCH":"2026-03-09T21:28:38.303328","MEAN_MOTION":15.29548678,"ECCENTRICITY":0.00097492,"INCLINATION":97.5426,"RA_OF_ASC_NODE":204.1954,"ARG_OF_PERICENTER":232.0253,"MEAN_ANOMALY":128.0107,"EPHEMERIS_TYPE":0,"CLASSIFICATION_TYPE":"U","NORAD_CAT_ID":59123,"ELEMENT_SET_NO":999,"REV_AT_EPOCH":11184,"BSTAR":0.00040142146,"MEAN_MOTION_DOT":0.0001144,"MEAN_MOTION_DDOT":0},{"OBJECT_NAME":"STARLINK-35586","OBJECT_ID":"2025-240P","EPOCH":"2026-03-09T06:58:57.084672","MEAN_MOTION":15.30199855,"ECCENTRICITY":0.00012006,"INCLINATION":53.1591,"RA_OF_ASC_NODE":64.9288,"ARG_OF_PERICENTER":82.9425,"MEAN_ANOMALY":277.1712,"EPHEMERIS_TYPE":0,"CLASSIFICATION_TYPE":"U","NORAD_CAT_ID":66159,"ELEMENT_SET_NO":999,"REV_AT_EPOCH":2192,"BSTAR":0.00094324194,"MEAN_MOTION_DOT":0.00027681,"MEAN_MOTION_DDOT":0}]
